{
  "links" : {
    "next" : "https://api.nasa.gov/neo/rest/v1/feed?start_date=2009-04-09&end_date=2009-04-09&detailed=true&api_key=t0TVs3DtDT2H8Oy2Zy8m2eVrNsAVKAexjcZXUckd",
    "prev" : "https://api.nasa.gov/neo/rest/v1/feed?start_date=2009-04-07&end_date=2009-04-07&detailed=true&api_key=t0TVs3DtDT2H8Oy2Zy8m2eVrNsAVKAexjcZXUckd",
    "self" : "https://api.nasa.gov/neo/rest/v1/feed?start_date=2009-04-08&end_date=2009-04-08&detailed=true&api_key=t0TVs3DtDT2H8Oy2Zy8m2eVrNsAVKAexjcZXUckd"
  },
  "element_count" : 5,
  "near_earth_objects" : {
    "2009-04-08" : [ {
      "links" : {
        "self" : "https://api.nasa.gov/neo/rest/v1/neo/3457389?api_key=t0TVs3DtDT2H8Oy2Zy8m2eVrNsAVKAexjcZXUckd"
      },
      "neo_reference_id" : "3457389",
      "name" : "(2009 HF)",
      "nasa_jpl_url" : "http://ssd.jpl.nasa.gov/sbdb.cgi?sstr=3457389",
      "absolute_magnitude_h" : 22.7,
      "estimated_diameter" : {
        "kilometers" : {
          "estimated_diameter_min" : 0.0766575574,
          "estimated_diameter_max" : 0.1714115092
        },
        "meters" : {
          "estimated_diameter_min" : 76.6575573531,
          "estimated_diameter_max" : 171.4115092306
        },
        "miles" : {
          "estimated_diameter_min" : 0.0476327831,
          "estimated_diameter_max" : 0.1065101409
        },
        "feet" : {
          "estimated_diameter_min" : 251.5011804664,
          "estimated_diameter_max" : 562.3737359442
        }
      },
      "is_potentially_hazardous_asteroid" : false,
      "close_approach_data" : [ {
        "close_approach_date" : "2009-04-08",
        "epoch_date_close_approach" : 1239174000000,
        "relative_velocity" : {
          "kilometers_per_second" : "12.7538349167",
          "kilometers_per_hour" : "45913.8057000408",
          "miles_per_hour" : "28529.053325117"
        },
        "miss_distance" : {
          "astronomical" : "0.0825231745",
          "lunar" : "32.1015167236",
          "kilometers" : "12345291",
          "miles" : "7671008.5"
        },
        "orbiting_body" : "Earth"
      } ],
      "orbital_data" : {
        "orbit_id" : "9",
        "orbit_determination_date" : "2017-04-06 09:00:48",
        "orbit_uncertainty" : "8",
        "minimum_orbit_intersection" : ".0747455",
        "jupiter_tisserand_invariant" : "4.260",
        "epoch_osculation" : "2454941.5",
        "eccentricity" : ".4256169201544798",
        "semi_major_axis" : "1.569355806743456",
        "inclination" : "18.17378521150715",
        "ascending_node_longitude" : "29.35403318397476",
        "orbital_period" : "718.0927712092177",
        "perihelion_distance" : ".9014114216507572",
        "perihelion_argument" : "111.3857375648011",
        "aphelion_distance" : "2.237300191836155",
        "perihelion_time" : "2454881.771468072491",
        "mean_anomaly" : "29.9435843890963",
        "mean_motion" : ".5013279821683558",
        "equinox" : "J2000"
      }
    }, {
      "links" : {
        "self" : "https://api.nasa.gov/neo/rest/v1/neo/2008507?api_key=t0TVs3DtDT2H8Oy2Zy8m2eVrNsAVKAexjcZXUckd"
      },
      "neo_reference_id" : "2008507",
      "name" : "8507 (1991 CB1)",
      "nasa_jpl_url" : "http://ssd.jpl.nasa.gov/sbdb.cgi?sstr=2008507",
      "absolute_magnitude_h" : 17.2,
      "estimated_diameter" : {
        "kilometers" : {
          "estimated_diameter_min" : 0.9650614696,
          "estimated_diameter_max" : 2.1579430484
        },
        "meters" : {
          "estimated_diameter_min" : 965.0614695789,
          "estimated_diameter_max" : 2157.9430484443
        },
        "miles" : {
          "estimated_diameter_min" : 0.5996612104,
          "estimated_diameter_max" : 1.34088323
        },
        "feet" : {
          "estimated_diameter_min" : 3166.2122718533,
          "estimated_diameter_max" : 7079.8658710581
        }
      },
      "is_potentially_hazardous_asteroid" : false,
      "close_approach_data" : [ {
        "close_approach_date" : "2009-04-08",
        "epoch_date_close_approach" : 1239174000000,
        "relative_velocity" : {
          "kilometers_per_second" : "29.9018188698",
          "kilometers_per_hour" : "107646.5479312814",
          "miles_per_hour" : "66887.3786298565"
        },
        "miss_distance" : {
          "astronomical" : "0.4908317539",
          "lunar" : "190.9335632324",
          "kilometers" : "73427384",
          "miles" : "45625664"
        },
        "orbiting_body" : "Earth"
      } ],
      "orbital_data" : {
        "orbit_id" : "60",
        "orbit_determination_date" : "2017-04-06 09:30:01",
        "orbit_uncertainty" : "0",
        "minimum_orbit_intersection" : ".219636",
        "jupiter_tisserand_invariant" : "3.971",
        "epoch_osculation" : "2458000.5",
        "eccentricity" : ".594474957110196",
        "semi_major_axis" : "1.687056004490531",
        "inclination" : "14.58570507659379",
        "ascending_node_longitude" : "317.431945382754",
        "orbital_period" : "800.3734554736299",
        "perihelion_distance" : ".6841434585785237",
        "perihelion_argument" : "345.7498710779489",
        "aphelion_distance" : "2.689968550402537",
        "perihelion_time" : "2458178.262461096106",
        "mean_anomaly" : "280.0442174125719",
        "mean_motion" : ".4497900293144605",
        "equinox" : "J2000"
      }
    }, {
      "links" : {
        "self" : "https://api.nasa.gov/neo/rest/v1/neo/3754328?api_key=t0TVs3DtDT2H8Oy2Zy8m2eVrNsAVKAexjcZXUckd"
      },
      "neo_reference_id" : "3754328",
      "name" : "(2016 MH)",
      "nasa_jpl_url" : "http://ssd.jpl.nasa.gov/sbdb.cgi?sstr=3754328",
      "absolute_magnitude_h" : 22.0,
      "estimated_diameter" : {
        "kilometers" : {
          "estimated_diameter_min" : 0.1058168859,
          "estimated_diameter_max" : 0.2366137501
        },
        "meters" : {
          "estimated_diameter_min" : 105.8168859331,
          "estimated_diameter_max" : 236.6137501138
        },
        "miles" : {
          "estimated_diameter_min" : 0.0657515442,
          "estimated_diameter_max" : 0.1470249225
        },
        "feet" : {
          "estimated_diameter_min" : 347.1682720448,
          "estimated_diameter_max" : 776.2918559233
        }
      },
      "is_potentially_hazardous_asteroid" : false,
      "close_approach_data" : [ {
        "close_approach_date" : "2009-04-08",
        "epoch_date_close_approach" : 1239174000000,
        "relative_velocity" : {
          "kilometers_per_second" : "8.0557290044",
          "kilometers_per_hour" : "29000.6244158731",
          "miles_per_hour" : "18019.8602099629"
        },
        "miss_distance" : {
          "astronomical" : "0.2348864679",
          "lunar" : "91.3708343506",
          "kilometers" : "35138516",
          "miles" : "21834062"
        },
        "orbiting_body" : "Earth"
      } ],
      "orbital_data" : {
        "orbit_id" : "8",
        "orbit_determination_date" : "2017-04-06 08:25:16",
        "orbit_uncertainty" : "6",
        "minimum_orbit_intersection" : ".0993757",
        "jupiter_tisserand_invariant" : "5.610",
        "epoch_osculation" : "2458000.5",
        "eccentricity" : ".2063013885123374",
        "semi_major_axis" : "1.097674680990034",
        "inclination" : "14.66467874649248",
        "ascending_node_longitude" : "242.1230367771491",
        "orbital_period" : "420.0576488159323",
        "perihelion_distance" : ".8712228701669529",
        "perihelion_argument" : "203.8067390105209",
        "aphelion_distance" : "1.324126491813115",
        "perihelion_time" : "2458188.455624623489",
        "mean_anomaly" : "198.9172889597682",
        "mean_motion" : ".8570252226445009",
        "equinox" : "J2000"
      }
    } ]
  }
}